{"type": "FeatureCollection", "features": [ {"type": "Feature", "properties": {"norad_id": 36385, "name": "COSMOS 2251 DEB", "group": "cosmos-2251-debris", "lat": 59.95840172297804, "lon": -34.86360696762574, "alt_km": 702.1617538733926, "timestamp": "2025-12-02T07:10:09.513552+00:00", "meta": {"OBJECT_NAME": "COSMOS 2251 DEB", "OBJECT_ID": "1993-036AZN", "EPOCH": "2025-12-01T14:20:33.326016", "MEAN_MOTION": 14.72238423, "ECCENTRICITY": 0.01412029, "INCLINATION": 73.9693, "RA_OF_ASC_NODE": 176.3184, "ARG_OF_PERICENTER": 353.3144, "MEAN_ANOMALY": 6.6137, "EPHEMERIS_TYPE": 0, "CLASSIFICATION_TYPE": "U", "NORAD_CAT_ID": 36385, "ELEMENT_SET_NO": 999, "REV_AT_EPOCH": 84938, "BSTAR": 0.0013285179, "MEAN_MOTION_DOT": 9.794e-05, "MEAN_MOTION_DDOT": 0}, "tle": {"line1": "1 36385U 93036AZN 25335.59760794  .00009794  00000+0  13285-2 0  9990", "line2": "2 36385  73.9693 176.3184 0141202 353.3144   6.6137 14.72238423849388"}}, "geometry": {"type": "Point", "coordinates": [-34.86360696762574, 59.95840172297804]}}, {"type": "Feature", "properties": {"norad_id": 36420, "name": "COSMOS 2251 DEB", "group": "cosmos-2251-debris", "lat": -59.568506085892324, "lon": -94.48428635260007, "alt_km": 775.3057308766683, "timestamp": "2025-12-02T07:10:09.513562+00:00", "meta": {"OBJECT_NAME": "COSMOS 2251 DEB", "OBJECT_ID": "1993-036AZT", "EPOCH": "2025-12-01T06:42:59.179968", "MEAN_MOTION": 14.36882275, "ECCENTRICITY": 0.0017594, "INCLINATION": 74.0373, "RA_OF_ASC_NODE": 296.5477, "ARG_OF_PERICENTER": 27.2231, "MEAN_ANOMALY": 41.0206, "EPHEMERIS_TYPE": 0, "CLASSIFICATION_TYPE": "U", "NORAD_CAT_ID": 36420, "ELEMENT_SET_NO": 999, "REV_AT_EPOCH": 84872, "BSTAR": 0.00019555, "MEAN_MOTION_DOT": 5.53e-06, "MEAN_MOTION_DDOT": 0}, "tle": {"line1": "1 36420U 93036AZT 25335.27985162  .00000553  00000+0  19555-3 0  9994", "line2": "2 36420  74.0373 296.5477 0017594  27.2231  41.0206 14.36882275848722"}}, "geometry": {"type": "Point", "coordinates": [-94.48428635260007, -59.568506085892324]}}, {"type": "Feature", "properties": {"norad_id": 36430, "name": "COSMOS 2251 DEB", "group": "cosmos-2251-debris", "lat": -56.38852965115897, "lon": 101.9141150878691, "alt_km": 740.4428005104965, "timestamp": "2025-12-02T07:10:09.513572+00:00", "meta": {"OBJECT_NAME": "COSMOS 2251 DEB", "OBJECT_ID": "1993-036BAD", "EPOCH": "2025-11-30T18:27:02.420064", "MEAN_MOTION": 14.27744805, "ECCENTRICITY": 0.00972736, "INCLINATION": 74.0032, "RA_OF_ASC_NODE": 130.2584, "ARG_OF_PERICENTER": 282.7583, "MEAN_ANOMALY": 76.2707, "EPHEMERIS_TYPE": 0, "CLASSIFICATION_TYPE": "U", "NORAD_CAT_ID": 36430, "ELEMENT_SET_NO": 999, "REV_AT_EPOCH": 64386, "BSTAR": 0.00043153037, "MEAN_MOTION_DOT": 1.094e-05, "MEAN_MOTION_DDOT": 0}, "tle": {"line1": "1 36430U 93036BAD 25334.76877801  .00001094  00000+0  43153-3 0  9990", "line2": "2 36430  74.0032 130.2584 0097273 282.7583  76.2707 14.27744805643868"}}, "geometry": {"type": "Point", "coordinates": [101.9141150878691, -56.38852965115897]}}, {"type": "Feature", "properties": {"norad_id": 36437, "name": "COSMOS 2251 DEB", "group": "cosmos-2251-debris", "lat": 39.21274721913892, "lon": -139.21349504526688, "alt_km": 670.1130350567191, "timestamp": "2025-12-02T07:10:09.513582+00:00", "meta": {"OBJECT_NAME": "COSMOS 2251 DEB", "OBJECT_ID": "1993-036BAL", "EPOCH": "2025-11-30T21:52:48.229248", "MEAN_MOTION": 14.70347915, "ECCENTRICITY": 0.00231055, "INCLINATION": 73.9433, "RA_OF_ASC_NODE": 57.083, "ARG_OF_PERICENTER": 288.4572, "MEAN_ANOMALY": 71.4087, "EPHEMERIS_TYPE": 0, "CLASSIFICATION_TYPE": "U", "NORAD_CAT_ID": 36437, "ELEMENT_SET_NO": 999, "REV_AT_EPOCH": 65877, "BSTAR": 0.0016193375, "MEAN_MOTION_DOT": 9.811e-05, "MEAN_MOTION_DDOT": 0}, "tle": {"line1": "1 36437U 93036BAL 25334.91166932  .00009811  00000+0  16193-2 0  9998", "line2": "2 36437  73.9433  57.0830 0023105 288.4572  71.4087 14.70347915658775"}}, "geometry": {"type": "Point", "coordinates": [-139.21349504526688, 39.21274721913892]}}, {"type": "Feature", "properties": {"norad_id": 36439, "name": "COSMOS 2251 DEB", "group": "cosmos-2251-debris", "lat": -5.30166621537084, "lon": 51.85091810346752, "alt_km": 812.1576932525641, "timestamp": "2025-12-02T07:10:09.513592+00:00", "meta": {"OBJECT_NAME": "COSMOS 2251 DEB", "OBJECT_ID": "1993-036BAN", "EPOCH": "2025-11-28T12:20:46.608576", "MEAN_MOTION": 13.47759109, "ECCENTRICITY": 0.04273078, "INCLINATION": 73.9677, "RA_OF_ASC_NODE": 59.4166, "ARG_OF_PERICENTER": 34.2696, "MEAN_ANOMALY": 328.5204, "EPHEMERIS_TYPE": 0, "CLASSIFICATION_TYPE": "U", "NORAD_CAT_ID": 36439, "ELEMENT_SET_NO": 999, "REV_AT_EPOCH": 58421, "BSTAR": 0.00064226543, "MEAN_MOTION_DOT": 6.71e-06, "MEAN_MOTION_DDOT": 0}, "tle": {"line1": "1 36439U 93036BAN 25332.51442834  .00000671  00000+0  64227-3 0  9999", "line2": "2 36439  73.9677  59.4166 0427307  34.2696 328.5204 13.47759109584210"}}, "geometry": {"type": "Point", "coordinates": [51.85091810346752, -5.30166621537084]}}, {"type": "Feature", "properties": {"norad_id": 36441, "name": "COSMOS 2251 DEB", "group": "cosmos-2251-debris", "lat": -36.239944143506335, "lon": -0.8099844634315021, "alt_km": 618.5477857974756, "timestamp": "2025-12-02T07:10:09.513602+00:00", "meta": {"OBJECT_NAME": "COSMOS 2251 DEB", "OBJECT_ID": "1993-036BAQ", "EPOCH": "2025-12-01T10:37:17.028480", "MEAN_MOTION": 15.06528579, "ECCENTRICITY": 0.01088896, "INCLINATION": 73.8359, "RA_OF_ASC_NODE": 13.2432, "ARG_OF_PERICENTER": 115.0998, "MEAN_ANOMALY": 246.1538, "EPHEMERIS_TYPE": 0, "CLASSIFICATION_TYPE": "U", "NORAD_CAT_ID": 36441, "ELEMENT_SET_NO": 999, "REV_AT_EPOCH": 86795, "BSTAR": 0.00050507629, "MEAN_MOTION_DOT": 8.513e-05, "MEAN_MOTION_DDOT": 0}, "tle": {"line1": "1 36441U 93036BAQ 25335.44255820  .00008513  00000+0  50508-3 0  9994", "line2": "2 36441  73.8359  13.2432 0108889 115.0998 246.1538 15.06528579867959"}}, "geometry": {"type": "Point", "coordinates": [-0.8099844634315021, -36.239944143506335]}}, {"type": "Feature", "properties": {"norad_id": 36442, "name": "COSMOS 2251 DEB", "group": "cosmos-2251-debris", "lat": 49.489380329915576, "lon": 81.19808111167367, "alt_km": 486.2819302923135, "timestamp": "2025-12-02T07:10:09.513612+00:00", "meta": {"OBJECT_NAME": "COSMOS 2251 DEB", "OBJECT_ID": "1993-036BAR", "EPOCH": "2025-11-30T23:26:58.990560", "MEAN_MOTION": 15.24721511, "ECCENTRICITY": 0.00074124, "INCLINATION": 73.9503, "RA_OF_ASC_NODE": 64.3117, "ARG_OF_PERICENTER": 319.957, "MEAN_ANOMALY": 40.1082, "EPHEMERIS_TYPE": 0, "CLASSIFICATION_TYPE": "U", "NORAD_CAT_ID": 36442, "ELEMENT_SET_NO": 999, "REV_AT_EPOCH": 85736, "BSTAR": 0.0052461948, "MEAN_MOTION_DOT": 0.00132297, "MEAN_MOTION_DDOT": 0}, "tle": {"line1": "1 36442U 93036BAR 25334.97707165  .00132297  00000+0  52462-2 0  9993", "line2": "2 36442  73.9503  64.3117 0007412 319.9570  40.1082 15.24721511857361"}}, "geometry": {"type": "Point", "coordinates": [81.19808111167367, 49.489380329915576]}}, {"type": "Feature", "properties": {"norad_id": 36451, "name": "COSMOS 2251 DEB", "group": "cosmos-2251-debris", "lat": 46.171176405866035, "lon": 11.419340293237543, "alt_km": 913.2325432668013, "timestamp": "2025-12-02T07:10:09.513622+00:00", "meta": {"OBJECT_NAME": "COSMOS 2251 DEB", "OBJECT_ID": "1993-036BBA", "EPOCH": "2025-11-23T11:22:47.268480", "MEAN_MOTION": 14.186418, "ECCENTRICITY": 0.01854084, "INCLINATION": 73.9551, "RA_OF_ASC_NODE": 9.8042, "ARG_OF_PERICENTER": 198.3245, "MEAN_ANOMALY": 161.1162, "EPHEMERIS_TYPE": 0, "CLASSIFICATION_TYPE": "U", "NORAD_CAT_ID": 36451, "ELEMENT_SET_NO": 999, "REV_AT_EPOCH": 83952, "BSTAR": 0.00086199657, "MEAN_MOTION_DOT": 2.093e-05, "MEAN_MOTION_DDOT": 0}, "tle": {"line1": "1 36451U 93036BBA 25327.47415820  .00002093  00000+0  86200-3 0  9992", "line2": "2 36451  73.9551   9.8042 0185408 198.3245 161.1162 14.18641800839520"}}, "geometry": {"type": "Point", "coordinates": [11.419340293237543, 46.171176405866035]}}, {"type": "Feature", "properties": {"norad_id": 36453, "name": "COSMOS 2251 DEB", "group": "cosmos-2251-debris", "lat": 60.74702190708952, "lon": -38.77602842519916, "alt_km": 670.9043087896061, "timestamp": "2025-12-02T07:10:09.513632+00:00", "meta": {"OBJECT_NAME": "COSMOS 2251 DEB", "OBJECT_ID": "1993-036BBC", "EPOCH": "2025-11-25T14:26:35.818080", "MEAN_MOTION": 14.52434579, "ECCENTRICITY": 0.00700835, "INCLINATION": 73.9233, "RA_OF_ASC_NODE": 184.9219, "ARG_OF_PERICENTER": 92.9023, "MEAN_ANOMALY": 298.1691, "EPHEMERIS_TYPE": 0, "CLASSIFICATION_TYPE": "U", "NORAD_CAT_ID": 36453, "ELEMENT_SET_NO": 999, "REV_AT_EPOCH": 84219, "BSTAR": 0.0011079124, "MEAN_MOTION_DOT": 4.638e-05, "MEAN_MOTION_DDOT": 0}, "tle": {"line1": "1 36453U 93036BBC 25329.60180345  .00004638  00000+0  11079-2 0  9990", "line2": "2 36453  73.9233 184.9219 0070083  92.9023 298.1691 14.52434579842191"}}, "geometry": {"type": "Point", "coordinates": [-38.77602842519916, 60.74702190708952]}}, {"type": "Feature", "properties": {"norad_id": 36459, "name": "COSMOS 2251 DEB", "group": "cosmos-2251-debris", "lat": -59.58657754697865, "lon": -10.496936022637893, "alt_km": 892.8418557890554, "timestamp": "2025-12-02T07:10:09.513642+00:00", "meta": {"OBJECT_NAME": "COSMOS 2251 DEB", "OBJECT_ID": "1993-036BBJ", "EPOCH": "2025-11-27T21:25:14.011392", "MEAN_MOTION": 14.2626117, "ECCENTRICITY": 0.0114133, "INCLINATION": 74.0487, "RA_OF_ASC_NODE": 26.6161, "ARG_OF_PERICENTER": 126.4072, "MEAN_ANOMALY": 234.7668, "EPHEMERIS_TYPE": 0, "CLASSIFICATION_TYPE": "U", "NORAD_CAT_ID": 36459, "ELEMENT_SET_NO": 999, "REV_AT_EPOCH": 7670, "BSTAR": 0.0017749, "MEAN_MOTION_DOT": 4.537e-05, "MEAN_MOTION_DDOT": 0}, "tle": {"line1": "1 36459U 93036BBJ 25331.89252328  .00004537  00000+0  17749-2 0  9999", "line2": "2 36459  74.0487  26.6161 0114133 126.4072 234.7668 14.26261170 76702"}}, "geometry": {"type": "Point", "coordinates": [-10.496936022637893, -59.58657754697865]}}]}